{"type": "FeatureCollection", "features": [ {"type": "Feature", "properties": {"norad_id": 30845, "name": "FENGYUN 1C DEB", "group": "fengyun-1c-debris", "lat": -81.09375944954397, "lon": 96.88881081548578, "alt_km": 841.5729844611706, "timestamp": "2025-12-12T09:49:09.010662+00:00", "meta": {"OBJECT_NAME": "FENGYUN 1C DEB", "OBJECT_ID": "1999-025AWF", "EPOCH": "2025-12-11T06:27:32.164992", "MEAN_MOTION": 13.76856445, "ECCENTRICITY": 0.01920352, "INCLINATION": 98.3792, "RA_OF_ASC_NODE": 346.0224, "ARG_OF_PERICENTER": 274.5083, "MEAN_ANOMALY": 105.0549, "EPHEMERIS_TYPE": 0, "CLASSIFICATION_TYPE": "U", "NORAD_CAT_ID": 30845, "ELEMENT_SET_NO": 999, "REV_AT_EPOCH": 94223, "BSTAR": 0.00054802614, "MEAN_MOTION_DOT": 5.8e-06, "MEAN_MOTION_DDOT": 0}, "tle": {"line1": "1 30845U 99025AWF 25345.26912228  .00000580  00000+0  54803-3 0  9991", "line2": "2 30845  98.3792 346.0224 0192035 274.5083 105.0549 13.76856445942233"}}, "geometry": {"type": "Point", "coordinates": [96.88881081548578, -81.09375944954397]}}, {"type": "Feature", "properties": {"norad_id": 30846, "name": "FENGYUN 1C DEB", "group": "fengyun-1c-debris", "lat": 47.150541725485674, "lon": 149.38996358752536, "alt_km": 736.2103276784728, "timestamp": "2025-12-12T09:49:09.010674+00:00", "meta": {"OBJECT_NAME": "FENGYUN 1C DEB", "OBJECT_ID": "1999-025AWG", "EPOCH": "2025-12-11T10:33:41.521824", "MEAN_MOTION": 14.41533792, "ECCENTRICITY": 0.00540308, "INCLINATION": 99.321, "RA_OF_ASC_NODE": 158.5318, "ARG_OF_PERICENTER": 340.2812, "MEAN_ANOMALY": 81.0151, "EPHEMERIS_TYPE": 0, "CLASSIFICATION_TYPE": "U", "NORAD_CAT_ID": 30846, "ELEMENT_SET_NO": 999, "REV_AT_EPOCH": 97911, "BSTAR": 0.0014276242, "MEAN_MOTION_DOT": 4.671e-05, "MEAN_MOTION_DDOT": 0}, "tle": {"line1": "1 30846U 99025AWG 25345.44006391  .00004671  00000+0  14276-2 0  9991", "line2": "2 30846  99.3210 158.5318 0054030 340.2812  81.0151 14.41533792979112"}}, "geometry": {"type": "Point", "coordinates": [149.38996358752536, 47.150541725485674]}}, {"type": "Feature", "properties": {"norad_id": 30847, "name": "FENGYUN 1C DEB", "group": "fengyun-1c-debris", "lat": 30.94020266572912, "lon": -28.14565835220263, "alt_km": 880.8907397062621, "timestamp": "2025-12-12T09:49:09.010685+00:00", "meta": {"OBJECT_NAME": "FENGYUN 1C DEB", "OBJECT_ID": "1999-025AWH", "EPOCH": "2025-12-11T21:58:43.061952", "MEAN_MOTION": 14.17011578, "ECCENTRICITY": 0.0065392, "INCLINATION": 98.732, "RA_OF_ASC_NODE": 146.0839, "ARG_OF_PERICENTER": 330.5671, "MEAN_ANOMALY": 182.6666, "EPHEMERIS_TYPE": 0, "CLASSIFICATION_TYPE": "U", "NORAD_CAT_ID": 30847, "ELEMENT_SET_NO": 999, "REV_AT_EPOCH": 96043, "BSTAR": 0.0029051, "MEAN_MOTION_DOT": 5.923e-05, "MEAN_MOTION_DDOT": 0}, "tle": {"line1": "1 30847U 99025AWH 25345.91577618  .00005923  00000+0  29051-2 0  9997", "line2": "2 30847  98.7320 146.0839 0065392 330.5671 182.6666 14.17011578960436"}}, "geometry": {"type": "Point", "coordinates": [-28.14565835220263, 30.94020266572912]}}, {"type": "Feature", "properties": {"norad_id": 30848, "name": "FENGYUN 1C DEB", "group": "fengyun-1c-debris", "lat": -47.11663820495941, "lon": -8.663479540492217, "alt_km": 793.582073781613, "timestamp": "2025-12-12T09:49:09.010695+00:00", "meta": {"OBJECT_NAME": "FENGYUN 1C DEB", "OBJECT_ID": "1999-025AWJ", "EPOCH": "2025-12-10T23:16:36.021504", "MEAN_MOTION": 14.34465563, "ECCENTRICITY": 0.00439038, "INCLINATION": 99.0599, "RA_OF_ASC_NODE": 179.7213, "ARG_OF_PERICENTER": 340.8768, "MEAN_ANOMALY": 19.0765, "EPHEMERIS_TYPE": 0, "CLASSIFICATION_TYPE": "U", "NORAD_CAT_ID": 30848, "ELEMENT_SET_NO": 999, "REV_AT_EPOCH": 97281, "BSTAR": 0.0017902216, "MEAN_MOTION_DOT": 5.054e-05, "MEAN_MOTION_DDOT": 0}, "tle": {"line1": "1 30848U 99025AWJ 25344.96986136  .00005054  00000+0  17902-2 0  9998", "line2": "2 30848  99.0599 179.7213 0043903 340.8768  19.0765 14.34465563972817"}}, "geometry": {"type": "Point", "coordinates": [-8.663479540492217, -47.11663820495941]}}, {"type": "Feature", "properties": {"norad_id": 30849, "name": "FENGYUN 1C DEB", "group": "fengyun-1c-debris", "lat": -60.20442493591675, "lon": 62.55742173976359, "alt_km": 823.6308138983359, "timestamp": "2025-12-12T09:49:09.010706+00:00", "meta": {"OBJECT_NAME": "FENGYUN 1C DEB", "OBJECT_ID": "1999-025AWK", "EPOCH": "2025-12-12T03:28:00.592320", "MEAN_MOTION": 14.18852204, "ECCENTRICITY": 0.0048036, "INCLINATION": 99.0473, "RA_OF_ASC_NODE": 46.1311, "ARG_OF_PERICENTER": 8.0657, "MEAN_ANOMALY": 19.8137, "EPHEMERIS_TYPE": 0, "CLASSIFICATION_TYPE": "U", "NORAD_CAT_ID": 30849, "ELEMENT_SET_NO": 999, "REV_AT_EPOCH": 96364, "BSTAR": 0.0019703, "MEAN_MOTION_DOT": 4.103e-05, "MEAN_MOTION_DDOT": 0}, "tle": {"line1": "1 30849U 99025AWK 25346.14445130  .00004103  00000+0  19703-2 0  9990", "line2": "2 30849  99.0473  46.1311 0048036   8.0657  19.8137 14.18852204963643"}}, "geometry": {"type": "Point", "coordinates": [62.55742173976359, -60.20442493591675]}}, {"type": "Feature", "properties": {"norad_id": 30850, "name": "FENGYUN 1C DEB", "group": "fengyun-1c-debris", "lat": -52.70434836055848, "lon": 20.7512156335414, "alt_km": 779.6990933747156, "timestamp": "2025-12-12T09:49:09.010716+00:00", "meta": {"OBJECT_NAME": "FENGYUN 1C DEB", "OBJECT_ID": "1999-025AWL", "EPOCH": "2025-12-11T04:29:27.221568", "MEAN_MOTION": 14.16266679, "ECCENTRICITY": 0.01092823, "INCLINATION": 98.3941, "RA_OF_ASC_NODE": 210.7767, "ARG_OF_PERICENTER": 202.3958, "MEAN_ANOMALY": 283.3506, "EPHEMERIS_TYPE": 0, "CLASSIFICATION_TYPE": "U", "NORAD_CAT_ID": 30850, "ELEMENT_SET_NO": 999, "REV_AT_EPOCH": 95776, "BSTAR": 0.0028131069, "MEAN_MOTION_DOT": 5.873e-05, "MEAN_MOTION_DDOT": 0}, "tle": {"line1": "1 30850U 99025AWL 25345.18712062  .00005873  00000+0  28131-2 0  9996", "line2": "2 30850  98.3941 210.7767 0109282 202.3958 283.3506 14.16266679957762"}}, "geometry": {"type": "Point", "coordinates": [20.7512156335414, -52.70434836055848]}}, {"type": "Feature", "properties": {"norad_id": 30852, "name": "FENGYUN 1C DEB", "group": "fengyun-1c-debris", "lat": -43.921473843426114, "lon": 175.65612053516887, "alt_km": 825.3651691593504, "timestamp": "2025-12-12T09:49:09.010727+00:00", "meta": {"OBJECT_NAME": "FENGYUN 1C DEB", "OBJECT_ID": "1999-025AWN", "EPOCH": "2025-12-12T00:14:28.197312", "MEAN_MOTION": 14.10282631, "ECCENTRICITY": 0.0055829, "INCLINATION": 98.7336, "RA_OF_ASC_NODE": 3.7818, "ARG_OF_PERICENTER": 236.6734, "MEAN_ANOMALY": 122.9084, "EPHEMERIS_TYPE": 0, "CLASSIFICATION_TYPE": "U", "NORAD_CAT_ID": 30852, "ELEMENT_SET_NO": 999, "REV_AT_EPOCH": 96372, "BSTAR": 0.00065001, "MEAN_MOTION_DOT": 1.126e-05, "MEAN_MOTION_DDOT": 0}, "tle": {"line1": "1 30852U 99025AWN 25346.01004858  .00001126  00000+0  65001-3 0  9993", "line2": "2 30852  98.7336   3.7818 0055829 236.6734 122.9084 14.10282631963724"}}, "geometry": {"type": "Point", "coordinates": [175.65612053516887, -43.921473843426114]}}, {"type": "Feature", "properties": {"norad_id": 30856, "name": "FENGYUN 1C DEB", "group": "fengyun-1c-debris", "lat": -25.115886249617027, "lon": 175.0833075927479, "alt_km": 748.5577970809845, "timestamp": "2025-12-12T09:49:09.010737+00:00", "meta": {"OBJECT_NAME": "FENGYUN 1C DEB", "OBJECT_ID": "1999-025AWS", "EPOCH": "2025-12-10T11:34:41.978784", "MEAN_MOTION": 14.46034305, "ECCENTRICITY": 0.00883899, "INCLINATION": 98.1998, "RA_OF_ASC_NODE": 169.3441, "ARG_OF_PERICENTER": 245.7679, "MEAN_ANOMALY": 143.5318, "EPHEMERIS_TYPE": 0, "CLASSIFICATION_TYPE": "U", "NORAD_CAT_ID": 30856, "ELEMENT_SET_NO": 999, "REV_AT_EPOCH": 96493, "BSTAR": 0.0081719665, "MEAN_MOTION_DOT": 0.00030659, "MEAN_MOTION_DDOT": 0}, "tle": {"line1": "1 30856U 99025AWS 25344.48243031  .00030659  00000+0  81720-2 0  9992", "line2": "2 30856  98.1998 169.3441 0088389 245.7679 143.5318 14.46034305964938"}}, "geometry": {"type": "Point", "coordinates": [175.0833075927479, -25.115886249617027]}}, {"type": "Feature", "properties": {"norad_id": 30857, "name": "FENGYUN 1C DEB", "group": "fengyun-1c-debris", "lat": 20.539836745580388, "lon": 159.5443139075379, "alt_km": 742.4070872324446, "timestamp": "2025-12-12T09:49:09.010759+00:00", "meta": {"OBJECT_NAME": "FENGYUN 1C DEB", "OBJECT_ID": "1999-025AWT", "EPOCH": "2025-12-10T22:20:28.597056", "MEAN_MOTION": 14.51403304, "ECCENTRICITY": 0.0041899, "INCLINATION": 98.9745, "RA_OF_ASC_NODE": 334.5727, "ARG_OF_PERICENTER": 300.5616, "MEAN_ANOMALY": 59.1445, "EPHEMERIS_TYPE": 0, "CLASSIFICATION_TYPE": "U", "NORAD_CAT_ID": 30857, "ELEMENT_SET_NO": 999, "REV_AT_EPOCH": 96697, "BSTAR": 0.0076916, "MEAN_MOTION_DOT": 0.0003112, "MEAN_MOTION_DDOT": 0}, "tle": {"line1": "1 30857U 99025AWT 25344.93088654  .00031120  00000+0  76916-2 0  9996", "line2": "2 30857  98.9745 334.5727 0041899 300.5616  59.1445 14.51403304966970"}}, "geometry": {"type": "Point", "coordinates": [159.5443139075379, 20.539836745580388]}}, {"type": "Feature", "properties": {"norad_id": 30858, "name": "FENGYUN 1C DEB", "group": "fengyun-1c-debris", "lat": -20.534225571434636, "lon": -139.2817637415836, "alt_km": 837.9428476764842, "timestamp": "2025-12-12T09:49:09.010770+00:00", "meta": {"OBJECT_NAME": "FENGYUN 1C DEB", "OBJECT_ID": "1999-025AWU", "EPOCH": "2025-12-11T19:38:31.170048", "MEAN_MOTION": 14.17778419, "ECCENTRICITY": 0.00308108, "INCLINATION": 98.7993, "RA_OF_ASC_NODE": 43.4592, "ARG_OF_PERICENTER": 112.4134, "MEAN_ANOMALY": 314.585, "EPHEMERIS_TYPE": 0, "CLASSIFICATION_TYPE": "U", "NORAD_CAT_ID": 30858, "ELEMENT_SET_NO": 999, "REV_AT_EPOCH": 96967, "BSTAR": 0.0005463452, "MEAN_MOTION_DOT": 1.076e-05, "MEAN_MOTION_DDOT": 0}, "tle": {"line1": "1 30858U 99025AWU 25345.81841632  .00001076  00000+0  54635-3 0  9990", "line2": "2 30858  98.7993  43.4592 0030810 112.4134 314.5850 14.17778419969678"}}, "geometry": {"type": "Point", "coordinates": [-139.2817637415836, -20.534225571434636]}}]}